HORYU-4                 
1 41340U 16012D   20209.31888641  .00000340  00000-0  18943-4 0  9990
2 41340  31.0058  77.9049 0013982 185.3408 174.7080 15.01523210243870
E-ST@R-II               
1 41459U 16025D   20209.78034801  .00001962  00000-0  10121-3 0  9997
2 41459  98.1079 321.8787 0165699  76.3516 285.6097 15.06538667233517
AAUSAT 4                
1 41460U 16025E   20209.72260026  .00002521  00000-0  12508-3 0  9996
2 41460  98.1080 324.2930 0154332  64.8229 296.8951 15.08892150233710
BEESAT-4                
1 41619U 16040W   20209.41038145  .00001041  00000-0  45678-4 0  9991
2 41619  97.3168 267.9950 0012204  45.7587 314.4650 15.24097205215488
CANX-7                  
1 41788U 16059F   20209.83567010  .00006080  00000-0  82547-3 0  9995
2 41788  98.2561 298.7103 0032929 164.6653 195.5584 14.78856521205783
RAVAN                   
1 41849U 16067B   20209.53866706  .00000422  00000-0  40326-4 0  9997
2 41849  97.9388 320.0811 0010459 105.2214 255.0165 14.98599076202625
CELTEE 1                
1 41850U 16067C   20209.30352386  .00000249  00000-0  26833-4 0  9992
2 41850  97.9301 317.4512 0010081 113.8897 246.3382 14.97196415202468
OPTICUBE 04             
1 41851U 16067D   20209.30767320  .00000371  00000-0  37553-4 0  9998
2 41851  97.9291 317.0527 0010320 115.4139 244.8152 14.96933559202445
AEROCUBE 8D             
1 41852U 16067E   20209.52458885  .00000632  00000-0  60317-4 0  9990
2 41852  97.9306 317.1111 0011268 113.7617 246.4787 14.96932530202458
AEROCUBE 8C             
1 41853U 16067F   20209.55708497 -.00000088  00000-0 -23726-5 0  9992
2 41853  97.9294 317.0452 0011087 116.3216 243.9145 14.96891079202457
PROMETHEUS 2-1          
1 41854U 16067G   20209.51799850  .00000921  00000-0  84800-4 0  9995
2 41854  97.9310 317.3592 0011982 114.9996 245.2471 14.97224516202463
PROMETHEUS 2-3          
1 41855U 16067H   20209.51817481  .00000896  00000-0  82611-4 0  9996
2 41855  97.9313 317.3941 0012165 115.3880 244.8602 14.97234154202466
INS-1B                  
1 41954U 17008G   20209.50829708  .00001011  00000-0  43499-4 0  9997
2 41954  97.3518 273.1882 0009822 150.6927 209.4863 15.24858180191476
BGUSAT                  
1 41999U 17008BD  20209.75859915  .00001704  00000-0  65771-4 0  9992
2 41999  97.3639 277.8072 0008603 156.2730 203.8908 15.27634346191108
DIDO-2                  
1 42000U 17008BE  20209.74203589  .00000692  00000-0  30952-4 0  9993
2 42000  97.3526 273.9091 0008705 166.9238 193.2227 15.24530157190904
PEASSS                  
1 42015U 17008BV  20209.49236083  .00000897  00000-0  38005-4 0  9990
2 42015  97.3552 275.3463 0006540 167.0993 193.0414 15.25684452191459
AL-FARABI 1             
1 42016U 17008BW  20209.75340277  .00001128  00000-0  45888-4 0  9996
2 42016  97.3582 276.7148 0006480 164.6363 195.5074 15.26546699191679
NAYIF-1 (EO-88)         
1 42017U 17008BX  20209.73103761  .00001168  00000-0  47366-4 0  9997
2 42017  97.3576 276.7032 0006527 164.4840 195.6600 15.26588045191694
UCLSAT                  
1 42765U 17036A   20209.68033938  .00000834  00000-0  37695-4 0  9993
2 42765  97.2979 262.8369 0009694 239.7764 120.2514 15.23596740172110
LITUANICASAT-2          
1 42768U 17036D   20209.44539607  .00001418  00000-0  60971-4 0  9996
2 42768  97.3037 262.6445 0013202 230.1702 129.8375 15.24192042171936
AALTO-1                 
1 42775U 17036L   20209.56069440  .00000542  00000-0  26781-4 0  9998
2 42775  97.2953 260.4238 0012373 234.3054 125.7032 15.21889255171773
URSA MAIOR              
1 42776U 17036M   20209.41364376  .00000584  00000-0  28467-4 0  9998
2 42776  97.2966 260.5830 0012183 234.4065 125.6036 15.22076240171764
COMPASS 2               
1 42777U 17036N   20209.53758411  .00001162  00000-0  50784-4 0  9999
2 42777  97.3025 263.1383 0010827 230.3549 129.6734 15.24022304171908
DIAMOND RED             
1 42783U 17036U   20209.56184027  .00000713  00000-0  33330-4 0  9994
2 42783  97.2978 261.9479 0010374 243.1057 116.9120 15.22897136171859
PEGASUS                 
1 42784U 17036V   20209.38541964  .00000771  00000-0  35394-4 0  9998
2 42784  97.2984 262.2234 0010247 242.5048 117.5148 15.23283096171854
DIAMOND GREEN           
1 42785U 17036W   20209.23208318  .00000606  00000-0  28751-4 0  9992
2 42785  97.2981 261.6643 0010240 245.1831 114.8342 15.22896108171872
DIAMOND BLUE            
1 42786U 17036X   20209.62554249  .00000706  00000-0  33035-4 0  9995
2 42786  97.2980 262.0417 0010113 243.7503 116.2695 15.22897270171851
NUDTSAT                 
1 42787U 17036Y   20209.60456140  .00001098  00000-0  47287-4 0  9994
2 42787  97.3038 263.9261 0009829 246.0122 114.0093 15.24625304171812
SUCHAI                  
1 42788U 17036Z   20209.39508619  .00000958  00000-0  42588-4 0  9993
2 42788  97.2993 262.8584 0009811 240.1111 119.9152 15.23846071171963
SKCUBE                  
1 42789U 17036AA  20209.44537915  .00000894  00000-0  40117-4 0  9996
2 42789  97.2987 262.7477 0009700 240.2888 119.7384 15.23682631171882
VZLUSAT-1               
1 42790U 17036AB  20209.39703404  .00001202  00000-0  51526-4 0  9990
2 42790  97.3013 263.7183 0009238 237.1694 122.8655 15.24610549171938
ROBUSTA-1B              
1 42792U 17036AD  20209.39419966  .00000949  00000-0  42172-4 0  9993
2 42792  97.2989 262.9617 0009271 240.6543 119.3769 15.23874807171905
CICERO 6                
1 42793U 17036AE  20209.46431733  .00000625  00000-0  29302-4 0  9999
2 42793  97.2965 262.3850 0008578 243.4411 116.5948 15.23198102171957
D-SAT                   
1 42794U 17036AF  20209.56650408  .00000296  00000-0  31090-4 0  9994
2 42794  97.4912 240.2333 0124899 230.6657 128.3440 14.91295464168674
CORVUS BC2              
1 42846U 17042X   20209.61017551  .00000181  00000-0  22968-4 0  9998
2 42846  97.5180  91.3479 0010575 136.8815 223.3234 14.92119170165397
CORVUS BC1              
1 42847U 17042Y   20209.40197618  .00000028  00000-0  78964-5 0  9997
2 42847  97.5183  91.3261 0010242 136.5030 223.6999 14.92220588165361
MIRATA                  
1 43015U 17073C   20209.57189804  .00000513  00000-0  45770-4 0  9992
2 43015  97.7167 120.2634 0251520 277.8241  79.4488 14.79723475145151
MAKERSAT 0              
1 43016U 17073D   20209.74815559  .00000329  00000-0  31568-4 0  9990
2 43016  97.7202 120.6054 0254346 278.3901  78.8554 14.79269531145155
DELLINGR (RBLE)         
1 43021U 98067NJ  20209.63020479  .00011651  00000-0  93103-4 0  9998
2 43021  51.6355  74.3643 0001357 181.1193 178.9802 15.71627373153189
AEROCUBE 7B (OCSD B)    
1 43042U 17071F   20209.76167740  .00002334  00000-0  59788-4 0  9993
2 43042  51.6364 228.7357 0004152 188.3933 171.6985 15.43835826148602
AEROCUBE 7C (OCSD C)    
1 43043U 17071G   20209.44206375  .00002222  00000-0  57401-4 0  9993
2 43043  51.6364 230.3666 0004348 191.7363 168.3522 15.43807395148528
CHEFSAT                 
1 43044U 17071H   20209.43234481  .00005139  00000-0  10189-3 0  9993
2 43044  51.6365 214.0935 0003638 199.7166 160.3682 15.48850196148743
ASGARDIA 1              
1 43049U 17071N   20209.43459886  .00002106  00000-0  54806-4 0  9992
2 43049  51.6376 229.6452 0001971 203.8023 156.2872 15.43834229148539
ISARA                   
1 43050U 17071P   20209.57054455  .00004815  00000-0  99553-4 0  9999
2 43050  51.6348 216.3842 0001633 210.3386 149.7508 15.47768578148716
PROPCUBE 2 (FAUNA)      
1 43052U 17071R   20209.47353399  .00002554  00000-0  63563-4 0  9999
2 43052  51.6370 227.6723 0001909 200.7314 159.3595 15.44304907148550
CORVUS BC3              
1 43118U 18004H   20209.42906463  .00000525  00000-0  25051-4 0  9996
2 43118  97.4420 279.3727 0008610 272.7418  87.2833 15.23413962141089
MICROMAS-2A             
1 43131U 18004W   20209.46769606  .00001299  00000-0  54340-4 0  9993
2 43131  97.4471 281.2866 0007409 269.8904  90.1485 15.25394012141192
SPACEBEE-4              
1 43139U 18004AE  20209.46715905  .00001991  00000-0  78541-4 0  9992
2 43139  97.4507 282.5659 0006734 269.6549  90.3918 15.26732858141263
SPACEBEE-3              
1 43140U 18004AF  20209.71506670  .00002613  00000-0  99366-4 0  9999
2 43140  97.4521 283.5643 0006371 265.4038  94.6474 15.27671806141348
SPACEBEE-2              
1 43141U 18004AG  20209.75192544  .00002693  00000-0  10137-3 0  9991
2 43141  97.4534 283.8862 0006351 264.1509  95.9006 15.27989743141365
SPACEBEE-1              
1 43142U 18004AH  20209.71010922  .00002768  00000-0  10294-3 0  9994
2 43142  97.4538 284.1291 0006305 263.5493  96.5028 15.28361323141364
CICERO 7                
1 43143U 18004AJ  20209.46796207  .00001135  00000-0  47811-4 0  9997
2 43143  97.4449 281.4600 0005669 282.1001  77.9602 15.25422514141216
GOMX-4B                 
1 43196U 18015E   20209.33026486  .00000218  00000-0  11875-4 0  9990
2 43196  97.4432 337.5718 0017874 329.0860  30.9324 15.24284021137970
GOMX-4A                 
1 43197U 18015F   20209.82208892  .00000552  00000-0  25308-4 0  9995
2 43197  97.4436 338.1634 0017948 327.3822 186.4526 15.24552275138061
UBAKUSAT                
1 43467U 98067NQ  20209.73335609  .00024486  00000-0  14920-3 0  9996
2 43467  51.6351  74.1487 0001504 177.1526 182.9483 15.77287740126469
CUBERRT                 
1 43546U 98067NU  20209.05532784  .00016469  00000-0  11314-3 0  9998
2 43546  51.6323  77.9086 0002302 223.9320 136.1497 15.74840033116485
TEMPEST-D               
1 43547U 98067NV  20209.44130028  .00004219  00000-0  51464-4 0  9998
2 43547  51.6362 109.9263 0004178 197.6135 162.4715 15.62954626115773
RAINCUBE                
1 43548U 98067NW  20209.67638603  .00025937  00000-0  16568-3 0  9991
2 43548  51.6319  82.7591 0002989 225.8089 134.2666 15.76172988116601
HALOSAT                 
1 43549U 98067NX  20209.38465639  .00022717  00000-0  15259-3 0  9996
2 43549  51.6353  85.4139 0002373 232.4987 127.5797 15.75105527116105
